{
  "type": "FeatureCollection",
  "features": [
    {
      "type": "Feature",
      "properties": {
        "norad_id": 46992,
        "name": "FENGYUN 1C DEB",
        "group": "fengyun-1c-debris",
        "lat": -64.0336441014746,
        "lon": -17.406345589033034,
        "alt_km": 913.0336063922523,
        "timestamp": "2025-12-02T19:35:50.846690+00:00",
        "meta_object_name": "FENGYUN 1C DEB",
        "meta_object_id": "1999-025EZS",
        "meta_epoch": "2025-11-30T16:28:49.931328",
        "meta_mean_motion": 14.00675889,
        "meta_eccentricity": 0.00717654,
        "meta_inclination": 98.8954,
        "meta_ra_of_asc_node": 321.762,
        "meta_arg_of_pericenter": 194.0114,
        "meta_mean_anomaly": 165.9062,
        "meta_ephemeris_type": 0,
        "meta_classification_type": "U",
        "meta_norad_cat_id": 46992,
        "meta_element_set_no": 999,
        "meta_rev_at_epoch": 60788,
        "meta_bstar": 0.00049604417,
        "meta_mean_motion_dot": 7.12e-06,
        "meta_mean_motion_ddot": 0,
        "tle_line1": "1 46992U 99025EZS 25334.68668902  .00000712  00000+0  49604-3 0  9992",
        "tle_line2": "2 46992  98.8954 321.7620 0071765 194.0114 165.9062 14.00675889607888"
      },
      "geometry": {
        "type": "Point",
        "coordinates": [
          -17.406345589033034,
          -64.0336441014746
        ]
      }
    },
    {
      "type": "Feature",
      "properties": {
        "norad_id": 46993,
        "name": "FENGYUN 1C DEB",
        "group": "fengyun-1c-debris",
        "lat": -1.6293297581370987,
        "lon": -84.05898118439121,
        "alt_km": 1161.43165732948,
        "timestamp": "2025-12-02T19:35:50.846700+00:00",
        "meta_object_name": "FENGYUN 1C DEB",
        "meta_object_id": "1999-025EZT",
        "meta_epoch": "2025-11-27T14:29:20.258016",
        "meta_mean_motion": 13.69128576,
        "meta_eccentricity": 0.02626499,
        "meta_inclination": 98.723,
        "meta_ra_of_asc_node": 91.4662,
        "meta_arg_of_pericenter": 339.6374,
        "meta_mean_anomaly": 83.9969,
        "meta_ephemeris_type": 0,
        "meta_classification_type": "U",
        "meta_norad_cat_id": 46993,
        "meta_element_set_no": 999,
        "meta_rev_at_epoch": 60050,
        "meta_bstar": 0.00042527912,
        "meta_mean_motion_dot": 4.29e-06,
        "meta_mean_motion_ddot": 0,
        "tle_line1": "1 46993U 99025EZT 25331.60370669  .00000429  00000+0  42528-3 0  9995",
        "tle_line2": "2 46993  98.7230  91.4662 0262649 339.6374  83.9969 13.69128576600507"
      },
      "geometry": {
        "type": "Point",
        "coordinates": [
          -84.05898118439121,
          -1.6293297581370987
        ]
      }
    },
    {
      "type": "Feature",
      "properties": {
        "norad_id": 46995,
        "name": "FENGYUN 1C DEB",
        "group": "fengyun-1c-debris",
        "lat": -73.44814923048351,
        "lon": 90.22589809932401,
        "alt_km": 1054.4239874746863,
        "timestamp": "2025-12-02T19:35:50.846711+00:00",
        "meta_object_name": "FENGYUN 1C DEB",
        "meta_object_id": "1999-025EZV",
        "meta_epoch": "2025-12-02T04:23:06.408384",
        "meta_mean_motion": 13.86224088,
        "meta_eccentricity": 0.01921313,
        "meta_inclination": 98.5974,
        "meta_ra_of_asc_node": 59.0441,
        "meta_arg_of_pericenter": 146.7857,
        "meta_mean_anomaly": 214.5535,
        "meta_ephemeris_type": 0,
        "meta_classification_type": "U",
        "meta_norad_cat_id": 46995,
        "meta_element_set_no": 999,
        "meta_rev_at_epoch": 60322,
        "meta_bstar": 0.0031893895,
        "meta_mean_motion_dot": 4.221e-05,
        "meta_mean_motion_ddot": 0,
        "tle_line1": "1 46995U 99025EZV 25336.18271306  .00004221  00000+0  31894-2 0  9990",
        "tle_line2": "2 46995  98.5974  59.0441 0192131 146.7857 214.5535 13.86224088603225"
      },
      "geometry": {
        "type": "Point",
        "coordinates": [
          90.22589809932401,
          -73.44814923048351
        ]
      }
    },
    {
      "type": "Feature",
      "properties": {
        "norad_id": 46997,
        "name": "FENGYUN 1C DEB",
        "group": "fengyun-1c-debris",
        "lat": -18.495659405080488,
        "lon": -165.5321676991836,
        "alt_km": 821.4319429007992,
        "timestamp": "2025-12-02T19:35:50.846721+00:00",
        "meta_object_name": "FENGYUN 1C DEB",
        "meta_object_id": "1999-025EZX",
        "meta_epoch": "2025-11-27T21:46:19.900992",
        "meta_mean_motion": 14.27881269,
        "meta_eccentricity": 0.0025231,
        "meta_inclination": 98.56,
        "meta_ra_of_asc_node": 12.5454,
        "meta_arg_of_pericenter": 21.0234,
        "meta_mean_anomaly": 155.6862,
        "meta_ephemeris_type": 0,
        "meta_classification_type": "U",
        "meta_norad_cat_id": 46997,
        "meta_element_set_no": 999,
        "meta_rev_at_epoch": 62239,
        "meta_bstar": 0.0012159,
        "meta_mean_motion_dot": 2.977e-05,
        "meta_mean_motion_ddot": 0,
        "tle_line1": "1 46997U 99025EZX 25331.90717478  .00002977  00000+0  12159-2 0  9991",
        "tle_line2": "2 46997  98.5600  12.5454 0025231  21.0234 155.6862 14.27881269622394"
      },
      "geometry": {
        "type": "Point",
        "coordinates": [
          -165.5321676991836,
          -18.495659405080488
        ]
      }
    },
    {
      "type": "Feature",
      "properties": {
        "norad_id": 47001,
        "name": "FENGYUN 1C DEB",
        "group": "fengyun-1c-debris",
        "lat": -29.20251439102927,
        "lon": -151.23111612376215,
        "alt_km": 794.6277067933152,
        "timestamp": "2025-12-02T19:35:50.846731+00:00",
        "meta_object_name": "FENGYUN 1C DEB",
        "meta_object_id": "1999-025FAB",
        "meta_epoch": "2025-11-27T21:45:34.406208",
        "meta_mean_motion": 14.38257926,
        "meta_eccentricity": 0.0053088,
        "meta_inclination": 99.3052,
        "meta_ra_of_asc_node": 28.7113,
        "meta_arg_of_pericenter": 92.9368,
        "meta_mean_anomaly": 267.7894,
        "meta_ephemeris_type": 0,
        "meta_classification_type": "U",
        "meta_norad_cat_id": 47001,
        "meta_element_set_no": 999,
        "meta_rev_at_epoch": 73701,
        "meta_bstar": 0.0016763,
        "meta_mean_motion_dot": 5.134e-05,
        "meta_mean_motion_ddot": 0,
        "tle_line1": "1 47001U 99025FAB 25331.90664822  .00005134  00000+0  16763-2 0  9995",
        "tle_line2": "2 47001  99.3052  28.7113 0053088  92.9368 267.7894 14.38257926737013"
      },
      "geometry": {
        "type": "Point",
        "coordinates": [
          -151.23111612376215,
          -29.20251439102927
        ]
      }
    },
    {
      "type": "Feature",
      "properties": {
        "norad_id": 47005,
        "name": "FENGYUN 1C DEB",
        "group": "fengyun-1c-debris",
        "lat": -3.411947651384689,
        "lon": -115.5114258865724,
        "alt_km": 856.0035652909328,
        "timestamp": "2025-12-02T19:35:50.846741+00:00",
        "meta_object_name": "FENGYUN 1C DEB",
        "meta_object_id": "1999-025FAF",
        "meta_epoch": "2025-11-30T12:21:06.215328",
        "meta_mean_motion": 14.10883027,
        "meta_eccentricity": 0.00630575,
        "meta_inclination": 99.6025,
        "meta_ra_of_asc_node": 62.6085,
        "meta_arg_of_pericenter": 275.5459,
        "meta_mean_anomaly": 102.9944,
        "meta_ephemeris_type": 0,
        "meta_classification_type": "U",
        "meta_norad_cat_id": 47005,
        "meta_element_set_no": 999,
        "meta_rev_at_epoch": 82595,
        "meta_bstar": 0.0024596036,
        "meta_mean_motion_dot": 4.445e-05,
        "meta_mean_motion_ddot": 0,
        "tle_line1": "1 47005U 99025FAF 25334.51465527  .00004445  00000+0  24596-2 0  9997",
        "tle_line2": "2 47005  99.6025  62.6085 0063057 275.5459 102.9944 14.10883027825956"
      },
      "geometry": {
        "type": "Point",
        "coordinates": [
          -115.5114258865724,
          -3.411947651384689
        ]
      }
    },
    {
      "type": "Feature",
      "properties": {
        "norad_id": 47007,
        "name": "FENGYUN 1C DEB",
        "group": "fengyun-1c-debris",
        "lat": 81.77925224654834,
        "lon": 112.29082245081113,
        "alt_km": 726.689941263211,
        "timestamp": "2025-12-02T19:35:50.846752+00:00",
        "meta_object_name": "FENGYUN 1C DEB",
        "meta_object_id": "1999-025FAH",
        "meta_epoch": "2025-11-28T20:38:56.637600",
        "meta_mean_motion": 13.9706531,
        "meta_eccentricity": 0.02352924,
        "meta_inclination": 98.2083,
        "meta_ra_of_asc_node": 196.306,
        "meta_arg_of_pericenter": 92.697,
        "meta_mean_anomaly": 270.115,
        "meta_ephemeris_type": 0,
        "meta_classification_type": "U",
        "meta_norad_cat_id": 47007,
        "meta_element_set_no": 999,
        "meta_rev_at_epoch": 78655,
        "meta_bstar": 0.0024244084,
        "meta_mean_motion_dot": 4.245e-05,
        "meta_mean_motion_ddot": 0,
        "tle_line1": "1 47007U 99025FAH 25332.86037775  .00004245  00000+0  24244-2 0  9993",
        "tle_line2": "2 47007  98.2083 196.3060 0235292  92.6970 270.1150 13.97065310786553"
      },
      "geometry": {
        "type": "Point",
        "coordinates": [
          112.29082245081113,
          81.77925224654834
        ]
      }
    }
  ]
}